[{"OBJECT_NAME":"IMECE","OBJECT_ID":"2023-054A","EPOCH":"2026-03-09T21:39:15.023808","MEAN_MOTION":14.65834495,"ECCENTRICITY":0.00107007,"INCLINATION":98.13,"RA_OF_ASC_NODE":334.7859,"ARG_OF_PERICENTER":118.749,"MEAN_ANOMALY":241.479,"EPHEMERIS_TYPE":0,"CLASSIFICATION_TYPE":"U","NORAD_CAT_ID":56178,"ELEMENT_SET_NO":999,"REV_AT_EPOCH":15586,"BSTAR":0.00010462809,"MEAN_MOTION_DOT":5.23e-6,"MEAN_MOTION_DDOT":0},{"OBJECT_NAME":"FENGYUN 1C DEB","OBJECT_ID":"1999-025EHA","EPOCH":"2026-03-08T19:33:43.102944","MEAN_MOTION":14.54192863,"ECCENTRICITY":0.01798594,"INCLINATION":98.1769,"RA_OF_ASC_NODE":84.1905,"ARG_OF_PERICENTER":22.0071,"MEAN_ANOMALY":338.8725,"EPHEMERIS_TYPE":0,"CLASSIFICATION_TYPE":"U","NORAD_CAT_ID":37432,"ELEMENT_SET_NO":999,"REV_AT_EPOCH":9627,"BSTAR":0.0013237397,"MEAN_MOTION_DOT":6.906e-5,"MEAN_MOTION_DDOT":0}]
